<?xml version="1.0" encoding="UTF-8"?><osm version="0.6" generator="Overpass API">
<note>The data included in this document is from www.openstreetmap.org. The data is made available under ODbL.</note>
<meta osm_base="2016-12-25T20:51:02Z"/>

  <node id="251912981" lat="40.2684596" lon="-74.7778803">
    <tag k="amenity" v="school"/>
    <tag k="created_by" v="Potlatch 0.7b"/>
    <tag k="is_in" v="NJ"/>
    <tag k="name" v="The College of New Jersey"/>
  </node>
  <node id="357276964" lat="40.2378863" lon="-74.8301634">
    <tag k="amenity" v="place_of_worship"/>
    <tag k="ele" v="12"/>
    <tag k="gnis:county_id" v="017"/>
    <tag k="gnis:created" v="08/02/1979"/>
    <tag k="gnis:feature_id" v="1169380"/>
    <tag k="gnis:state_id" v="42"/>
    <tag k="name" v="Bethel Church"/>
    <tag k="religion" v="christian"/>
  </node>
  <node id="357291445" lat="40.2362196" lon="-74.8193297">
    <tag k="amenity" v="grave_yard"/>
    <tag k="ele" v="7"/>
    <tag k="gnis:county_id" v="017"/>
    <tag k="gnis:created" v="08/02/1979"/>
    <tag k="gnis:feature_id" v="1177298"/>
    <tag k="gnis:state_id" v="42"/>
    <tag k="name" v="Holy Trinity Cemetery"/>
  </node>
  <node id="357307113" lat="40.2423306" lon="-74.8418304">
    <tag k="amenity" v="place_of_worship"/>
    <tag k="ele" v="12"/>
    <tag k="gnis:county_id" v="017"/>
    <tag k="gnis:created" v="08/02/1979"/>
    <tag k="gnis:feature_id" v="1185760"/>
    <tag k="gnis:state_id" v="42"/>
    <tag k="name" v="Saint Andrews Church"/>
    <tag k="religion" v="christian"/>
  </node>
  <node id="357307923" lat="40.2364974" lon="-74.8201631">
    <tag k="amenity" v="grave_yard"/>
    <tag k="ele" v="7"/>
    <tag k="gnis:county_id" v="017"/>
    <tag k="gnis:created" v="08/02/1979"/>
    <tag k="gnis:feature_id" v="1185998"/>
    <tag k="gnis:state_id" v="42"/>
    <tag k="name" v="Saint Ignatius Cemetery"/>
  </node>
  <node id="357334385" lat="40.2237198" lon="-74.8723869">
    <tag k="amenity" v="school"/>
    <tag k="ele" v="44"/>
    <tag k="gnis:county_id" v="017"/>
    <tag k="gnis:created" v="08/02/1979"/>
    <tag k="gnis:feature_id" v="1198062"/>
    <tag k="gnis:state_id" v="42"/>
    <tag k="name" v="Edgewood School"/>
  </node>
  <node id="357350878" lat="40.2256643" lon="-74.8371081">
    <tag k="amenity" v="school"/>
    <tag k="ele" v="43"/>
    <tag k="gnis:county_id" v="017"/>
    <tag k="gnis:created" v="01/01/1990"/>
    <tag k="gnis:feature_id" v="1207436"/>
    <tag k="gnis:state_id" v="42"/>
    <tag k="name" v="Edgewood Elementary School"/>
  </node>
  <node id="357350885" lat="40.2384418" lon="-74.8373858">
    <tag k="amenity" v="school"/>
    <tag k="ele" v="31"/>
    <tag k="gnis:county_id" v="017"/>
    <tag k="gnis:created" v="01/01/1990"/>
    <tag k="gnis:feature_id" v="1207437"/>
    <tag k="gnis:state_id" v="42"/>
    <tag k="name" v="Abrams Hebrew Academy"/>
  </node>
  <node id="357350891" lat="40.2445528" lon="-74.8726647">
    <tag k="amenity" v="school"/>
    <tag k="ele" v="50"/>
    <tag k="gnis:county_id" v="017"/>
    <tag k="gnis:created" v="01/01/1990"/>
    <tag k="gnis:feature_id" v="1207438"/>
    <tag k="gnis:state_id" v="42"/>
    <tag k="name" v="Quarry Hill Elementary School"/>
  </node>
  <node id="357350907" lat="40.2231643" lon="-74.8207187">
    <tag k="amenity" v="school"/>
    <tag k="ele" v="43"/>
    <tag k="gnis:county_id" v="017"/>
    <tag k="gnis:created" v="01/01/1990"/>
    <tag k="gnis:feature_id" v="1207440"/>
    <tag k="gnis:state_id" v="42"/>
    <tag k="name" v="Makefield Elementary School"/>
  </node>
  <node id="357353743" lat="40.2309419" lon="-74.8396081">
    <tag k="amenity" v="school"/>
    <tag k="ele" v="30"/>
    <tag k="gnis:county_id" v="017"/>
    <tag k="gnis:created" v="04/01/1990"/>
    <tag k="gnis:feature_id" v="1208359"/>
    <tag k="gnis:state_id" v="42"/>
    <tag k="name" v="Saint Ignatius Elementary School"/>
  </node>
  <node id="357354030" lat="40.2234420" lon="-74.8204409">
    <tag k="amenity" v="school"/>
    <tag k="ele" v="43"/>
    <tag k="gnis:county_id" v="017"/>
    <tag k="gnis:created" v="05/01/1990"/>
    <tag k="gnis:feature_id" v="1208449"/>
    <tag k="gnis:state_id" v="42"/>
    <tag k="name" v="Makefield Elementary School"/>
  </node>
  <node id="357367573" lat="40.2456640" lon="-74.8459972">
    <tag k="amenity" v="post_office"/>
    <tag k="ele" v="22"/>
    <tag k="gnis:county_id" v="017"/>
    <tag k="gnis:created" v="02/01/1990"/>
    <tag k="gnis:feature_id" v="1214583"/>
    <tag k="gnis:state_id" v="42"/>
    <tag k="name" v="Yardley Post Office (historical)"/>
  </node>
  <node id="357717872" lat="40.2512195" lon="-74.7643281">
    <tag k="amenity" v="school"/>
    <tag k="ele" v="32"/>
    <tag k="gnis:county_id" v="021"/>
    <tag k="gnis:created" v="09/08/1979"/>
    <tag k="gnis:feature_id" v="874286"/>
    <tag k="gnis:state_id" v="34"/>
    <tag k="name" v="Alfred Reed School"/>
  </node>
  <node id="357719174" lat="40.2286646" lon="-74.7798294">
    <tag k="amenity" v="school"/>
    <tag k="ele" v="15"/>
    <tag k="gnis:county_id" v="021"/>
    <tag k="gnis:created" v="09/08/1979"/>
    <tag k="gnis:edited" v="01/22/2008"/>
    <tag k="gnis:feature_id" v="875079"/>
    <tag k="gnis:state_id" v="34"/>
    <tag k="name" v="Cadwalader Elementary School"/>
  </node>
  <node id="357719599" lat="40.3173294" lon="-74.7893290">
    <tag k="amenity" v="school"/>
    <tag k="ele" v="63"/>
    <tag k="gnis:county_id" v="021"/>
    <tag k="gnis:created" v="09/08/1979"/>
    <tag k="gnis:feature_id" v="875340"/>
    <tag k="gnis:state_id" v="34"/>
    <tag k="name" v="Central High School (historical)"/>
  </node>
  <node id="357720310" lat="40.2426085" lon="-74.7815508">
    <tag k="amenity" v="school"/>
    <tag k="ele" v="30"/>
    <tag k="gnis:county_id" v="021"/>
    <tag k="gnis:created" v="09/08/1979"/>
    <tag k="gnis:feature_id" v="875677"/>
    <tag k="gnis:state_id" v="34"/>
    <tag k="name" v="Covenant Nursery School"/>
  </node>
  <node id="357721493" lat="40.2687191" lon="-74.7998848">
    <tag k="amenity" v="grave_yard"/>
    <tag k="ele" v="44"/>
    <tag k="gnis:county_id" v="021"/>
    <tag k="gnis:created" v="09/08/1979"/>
    <tag k="gnis:feature_id" v="876248"/>
    <tag k="gnis:state_id" v="34"/>
    <tag k="name" v="Ewing Cemetery"/>
  </node>
  <node id="357721497" lat="40.2545555" lon="-74.7904537">
    <tag k="amenity" v="school"/>
    <tag k="ele" v="34"/>
    <tag k="gnis:county_id" v="021"/>
    <tag k="gnis:created" v="09/08/1979"/>
    <tag k="gnis:edited" v="01/22/2008"/>
    <tag k="gnis:feature_id" v="876249"/>
    <tag k="gnis:state_id" v="34"/>
    <tag k="name" v="Ewing High School"/>
  </node>
  <node id="357721819" lat="40.2656637" lon="-74.8207187">
    <tag k="amenity" v="school"/>
    <tag k="ele" v="49"/>
    <tag k="gnis:county_id" v="021"/>
    <tag k="gnis:created" v="09/08/1979"/>
    <tag k="gnis:feature_id" v="876362"/>
    <tag k="gnis:state_id" v="34"/>
    <tag k="name" v="Fisk School"/>
  </node>
  <node id="357722576" lat="40.2248225" lon="-74.7540645">
    <tag k="amenity" v="school"/>
    <tag k="ele" v="14"/>
    <tag k="gnis:county_id" v="021"/>
    <tag k="gnis:created" v="09/08/1979"/>
    <tag k="gnis:edited" v="01/22/2008"/>
    <tag k="gnis:feature_id" v="876706"/>
    <tag k="gnis:state_id" v="34"/>
    <tag k="name" v="Grant Elementary School"/>
  </node>
  <node id="357722748" lat="40.2320505" lon="-74.7782175">
    <tag k="amenity" v="school"/>
    <tag k="ele" v="32"/>
    <tag k="gnis:county_id" v="021"/>
    <tag k="gnis:created" v="09/08/1979"/>
    <tag k="gnis:edited" v="01/22/2008"/>
    <tag k="gnis:feature_id" v="876820"/>
    <tag k="gnis:state_id" v="34"/>
    <tag k="name" v="Benjamin C Gregory Elementary School"/>
  </node>
  <node id="357724031" lat="40.2306643" lon="-74.7584946">
    <tag k="amenity" v="school"/>
    <tag k="ele" v="23"/>
    <tag k="gnis:county_id" v="021"/>
    <tag k="gnis:created" v="09/08/1979"/>
    <tag k="gnis:feature_id" v="877422"/>
    <tag k="gnis:state_id" v="34"/>
    <tag k="name" v="Jefferson School"/>
  </node>
  <node id="357724219" lat="40.2320531" lon="-74.7598835">
    <tag k="amenity" v="school"/>
    <tag k="ele" v="27"/>
    <tag k="gnis:county_id" v="021"/>
    <tag k="gnis:created" v="09/08/1979"/>
    <tag k="gnis:feature_id" v="877504"/>
    <tag k="gnis:state_id" v="34"/>
    <tag k="name" v="Junior High School Number 1"/>
  </node>
  <node id="357724229" lat="40.2259421" lon="-74.7626614">
    <tag k="amenity" v="school"/>
    <tag k="ele" v="21"/>
    <tag k="gnis:county_id" v="021"/>
    <tag k="gnis:created" v="09/08/1979"/>
    <tag k="gnis:feature_id" v="877506"/>
    <tag k="gnis:state_id" v="34"/>
    <tag k="name" v="Junior High School Number 5"/>
  </node>
  <node id="357724567" lat="40.2667748" lon="-74.7840509">
    <tag k="amenity" v="school"/>
    <tag k="ele" v="36"/>
    <tag k="gnis:county_id" v="021"/>
    <tag k="gnis:created" v="09/08/1979"/>
    <tag k="gnis:feature_id" v="877668"/>
    <tag k="gnis:state_id" v="34"/>
    <tag k="name" v="Lanning School"/>
  </node>
  <node id="357724643" lat="40.2628492" lon="-74.7324477">
    <tag k="amenity" v="school"/>
    <tag k="ele" v="31"/>
    <tag k="gnis:county_id" v="021"/>
    <tag k="gnis:created" v="07/01/1981"/>
    <tag k="gnis:edited" v="01/22/2008"/>
    <tag k="gnis:feature_id" v="877706"/>
    <tag k="gnis:state_id" v="34"/>
    <tag k="name" v="Lawrence Middle School"/>
  </node>
  <node id="357724665" lat="40.2939665" lon="-74.7290555">
    <tag k="amenity" v="school"/>
    <tag k="ele" v="31"/>
    <tag k="gnis:county_id" v="021"/>
    <tag k="gnis:created" v="09/08/1979"/>
    <tag k="gnis:edited" v="01/22/2008"/>
    <tag k="gnis:feature_id" v="877711"/>
    <tag k="gnis:state_id" v="34"/>
    <tag k="name" v="Lawrenceville School"/>
  </node>
  <node id="357725534" lat="40.2359419" lon="-74.7521055">
    <tag k="amenity" v="hospital"/>
    <tag k="ele" v="25"/>
    <tag k="gnis:county_id" v="021"/>
    <tag k="gnis:created" v="09/08/1979"/>
    <tag k="gnis:feature_id" v="878222"/>
    <tag k="gnis:state_id" v="34"/>
    <tag k="name" v="McKinley Hospital"/>
  </node>
  <node id="357725600" lat="40.2309420" lon="-74.7779396">
    <tag k="amenity" v="hospital"/>
    <tag k="ele" v="27"/>
    <tag k="gnis:county_id" v="021"/>
    <tag k="gnis:created" v="09/08/1979"/>
    <tag k="gnis:feature_id" v="878263"/>
    <tag k="gnis:state_id" v="34"/>
    <tag k="name" v="Mercer Hospital"/>
  </node>
  <node id="357725891" lat="40.2284288" lon="-74.7687825">
    <tag k="amenity" v="school"/>
    <tag k="ele" v="25"/>
    <tag k="gnis:county_id" v="021"/>
    <tag k="gnis:created" v="09/08/1979"/>
    <tag k="gnis:edited" v="01/22/2008"/>
    <tag k="gnis:feature_id" v="878460"/>
    <tag k="gnis:state_id" v="34"/>
    <tag k="name" v="Monument Elementary School"/>
  </node>
  <node id="357725925" lat="40.2878857" lon="-74.7343272">
    <tag k="amenity" v="place_of_worship"/>
    <tag k="ele" v="37"/>
    <tag k="gnis:county_id" v="021"/>
    <tag k="gnis:created" v="09/08/1979"/>
    <tag k="gnis:feature_id" v="878488"/>
    <tag k="gnis:state_id" v="34"/>
    <tag k="name" v="Morris Church"/>
    <tag k="religion" v="christian"/>
  </node>
  <node id="357726422" lat="40.2701081" lon="-74.7534945">
    <tag k="amenity" v="place_of_worship"/>
    <tag k="ele" v="34"/>
    <tag k="gnis:county_id" v="021"/>
    <tag k="gnis:created" v="09/08/1979"/>
    <tag k="gnis:feature_id" v="878739"/>
    <tag k="gnis:state_id" v="34"/>
    <tag k="name" v="New Hope Church"/>
    <tag k="religion" v="christian"/>
  </node>
  <node id="357726430" lat="40.2701461" lon="-74.7781509">
    <tag k="amenity" v="school"/>
    <tag k="ele" v="37"/>
    <tag k="gnis:county_id" v="021"/>
    <tag k="gnis:created" v="07/01/1981"/>
    <tag k="gnis:edited" v="01/22/2008"/>
    <tag k="gnis:feature_id" v="878743"/>
    <tag k="gnis:state_id" v="34"/>
    <tag k="name" v="The College of New Jersey"/>
  </node>
  <node id="357727074" lat="40.2426362" lon="-74.7795617">
    <tag k="amenity" v="school"/>
    <tag k="ele" v="32"/>
    <tag k="gnis:county_id" v="021"/>
    <tag k="gnis:created" v="09/08/1979"/>
    <tag k="gnis:edited" v="01/22/2008"/>
    <tag k="gnis:feature_id" v="879140"/>
    <tag k="gnis:state_id" v="34"/>
    <tag k="name" v="Parkway Elementary School"/>
  </node>
  <node id="357727892" lat="40.2211803" lon="-74.7573189">
    <tag k="amenity" v="school"/>
    <tag k="ele" v="16"/>
    <tag k="gnis:county_id" v="021"/>
    <tag k="gnis:created" v="09/08/1979"/>
    <tag k="gnis:feature_id" v="879681"/>
    <tag k="gnis:state_id" v="34"/>
    <tag k="name" v="Rider College"/>
  </node>
  <node id="357728349" lat="40.2192757" lon="-74.7312715">
    <tag k="amenity" v="school"/>
    <tag k="ele" v="17"/>
    <tag k="gnis:county_id" v="021"/>
    <tag k="gnis:created" v="09/08/1979"/>
    <tag k="gnis:feature_id" v="879930"/>
    <tag k="gnis:state_id" v="34"/>
    <tag k="name" v="Saint Anthonys Convent"/>
  </node>
  <node id="357728543" lat="40.2381543" lon="-74.7501710">
    <tag k="amenity" v="school"/>
    <tag k="ele" v="31"/>
    <tag k="gnis:county_id" v="021"/>
    <tag k="gnis:created" v="09/08/1979"/>
    <tag k="gnis:edited" v="01/22/2008"/>
    <tag k="gnis:feature_id" v="879984"/>
    <tag k="gnis:state_id" v="34"/>
    <tag k="name" v="Saint Hedwig School"/>
  </node>
  <node id="357728601" lat="40.2348308" lon="-74.7576613">
    <tag k="amenity" v="school"/>
    <tag k="ele" v="27"/>
    <tag k="gnis:county_id" v="021"/>
    <tag k="gnis:created" v="09/08/1979"/>
    <tag k="gnis:feature_id" v="879999"/>
    <tag k="gnis:state_id" v="34"/>
    <tag k="name" v="Saint James School"/>
  </node>
  <node id="357730512" lat="40.2411844" lon="-74.7823131">
    <tag k="amenity" v="school"/>
    <tag k="ele" v="30"/>
    <tag k="gnis:county_id" v="021"/>
    <tag k="gnis:created" v="09/08/1979"/>
    <tag k="gnis:edited" v="01/22/2008"/>
    <tag k="gnis:feature_id" v="880917"/>
    <tag k="gnis:state_id" v="34"/>
    <tag k="name" v="Joseph Stokes Memorial Elementary School"/>
  </node>
  <node id="357730776" lat="40.2208119" lon="-74.7588712">
    <tag k="addr:city" v="Trenton city"/>
    <tag k="addr:housenumber" v="320-322"/>
    <tag k="addr:street" v="East State Street"/>
    <tag k="amenity" v="school"/>
    <tag k="ele" v="16"/>
    <tag k="gnis:county_id" v="021"/>
    <tag k="gnis:created" v="09/08/1979"/>
    <tag k="gnis:feature_id" v="881113"/>
    <tag k="gnis:state_id" v="34"/>
    <tag k="name" v="Technical School"/>
  </node>
  <node id="357730966" lat="40.2462196" lon="-74.7587724">
    <tag k="amenity" v="school"/>
    <tag k="ele" v="24"/>
    <tag k="gnis:county_id" v="021"/>
    <tag k="gnis:created" v="09/08/1979"/>
    <tag k="gnis:feature_id" v="881247"/>
    <tag k="gnis:state_id" v="34"/>
    <tag k="name" v="Trenton Day School"/>
  </node>
  <node id="357731335" lat="40.2549388" lon="-74.8412303">
    <tag k="amenity" v="school"/>
    <tag k="ele" v="13"/>
    <tag k="gnis:county_id" v="021"/>
    <tag k="gnis:created" v="07/01/1981"/>
    <tag k="gnis:edited" v="01/22/2008"/>
    <tag k="gnis:feature_id" v="881457"/>
    <tag k="gnis:state_id" v="34"/>
    <tag k="name" v="Villa Victoria Academy School"/>
  </node>
  <node id="357736663" lat="40.2653218" lon="-74.7306971">
    <tag k="addr:city" v="Lawrence twp"/>
    <tag k="addr:housenumber" v="2491"/>
    <tag k="addr:street" v="Princeton Pike"/>
    <tag k="amenity" v="school"/>
    <tag k="ele" v="30"/>
    <tag k="gnis:county_id" v="021"/>
    <tag k="gnis:created" v="07/01/1981"/>
    <tag k="gnis:edited" v="01/22/2008"/>
    <tag k="gnis:feature_id" v="1989573"/>
    <tag k="gnis:state_id" v="34"/>
    <tag k="name" v="Lawrence High School"/>
  </node>
  <node id="357736666" lat="40.2623365" lon="-74.7426640">
    <tag k="amenity" v="school"/>
    <tag k="ele" v="28"/>
    <tag k="elementary_school_district" v="Eldrige Park Elementary School District"/>
    <tag k="gnis:county_id" v="021"/>
    <tag k="gnis:created" v="07/01/1981"/>
    <tag k="gnis:edited" v="01/22/2008"/>
    <tag k="gnis:feature_id" v="1989577"/>
    <tag k="gnis:state_id" v="34"/>
    <tag k="name" v="Eldridge Park Elementary School"/>
  </node>
  <node id="357736668" lat="40.2555149" lon="-74.7434723">
    <tag k="amenity" v="school"/>
    <tag k="ele" v="21"/>
    <tag k="gnis:county_id" v="021"/>
    <tag k="gnis:created" v="07/01/1981"/>
    <tag k="gnis:edited" v="01/22/2008"/>
    <tag k="gnis:feature_id" v="1989579"/>
    <tag k="gnis:state_id" v="34"/>
    <tag k="name" v="Notre Dame High School"/>
  </node>
  <node id="357736671" lat="40.2662121" lon="-74.7440370">
    <tag k="amenity" v="school"/>
    <tag k="ele" v="31"/>
    <tag k="gnis:county_id" v="021"/>
    <tag k="gnis:created" v="07/01/1981"/>
    <tag k="gnis:edited" v="01/22/2008"/>
    <tag k="gnis:feature_id" v="1989583"/>
    <tag k="gnis:state_id" v="34"/>
    <tag k="name" v="Saint Ann Elementary School"/>
  </node>
  <node id="357736673" lat="40.2814968" lon="-74.7404385">
    <tag k="amenity" v="place_of_worship"/>
    <tag k="ele" v="29"/>
    <tag k="gnis:county_id" v="021"/>
    <tag k="gnis:created" v="07/01/1981"/>
    <tag k="gnis:feature_id" v="1989585"/>
    <tag k="gnis:state_id" v="34"/>
    <tag k="name" v="Gill Memorial Chapel"/>
    <tag k="religion" v="christian"/>
  </node>
  <node id="357736675" lat="40.2881634" lon="-74.7357162">
    <tag k="amenity" v="grave_yard"/>
    <tag k="ele" v="38"/>
    <tag k="gnis:county_id" v="021"/>
    <tag k="gnis:created" v="07/01/1981"/>
    <tag k="gnis:feature_id" v="1989586"/>
    <tag k="gnis:state_id" v="34"/>
    <tag k="name" v="Morris Hall Cemetery"/>
  </node>
  <node id="357736754" lat="40.2689969" lon="-74.7954401">
    <tag k="amenity" v="grave_yard"/>
    <tag k="ele" v="42"/>
    <tag k="gnis:county_id" v="021"/>
    <tag k="gnis:created" v="07/01/1981"/>
    <tag k="gnis:feature_id" v="1989809"/>
    <tag k="gnis:state_id" v="34"/>
    <tag k="name" v="State Cemetery"/>
  </node>
  <node id="357736757" lat="40.2538981" lon="-74.8128281">
    <tag k="amenity" v="school"/>
    <tag k="ele" v="31"/>
    <tag k="gnis:county_id" v="021"/>
    <tag k="gnis:created" v="07/01/1981"/>
    <tag k="gnis:edited" v="01/22/2008"/>
    <tag k="gnis:feature_id" v="1989810"/>
    <tag k="gnis:state_id" v="34"/>
    <tag k="name" v="New Jersey School for the Deaf Katzenbach Campus"/>
  </node>
  <node id="357746241" lat="40.2790781" lon="-74.7392803">
    <tag k="amenity" v="school"/>
    <tag k="ele" v="24"/>
    <tag k="gnis:county_id" v="021"/>
    <tag k="gnis:created" v="07/01/1981"/>
    <tag k="gnis:edited" v="01/22/2008"/>
    <tag k="gnis:feature_id" v="2059755"/>
    <tag k="gnis:state_id" v="34"/>
    <tag k="name" v="Rider University"/>
  </node>
  <node id="357746248" lat="40.2881634" lon="-74.7354384">
    <tag k="amenity" v="hospital"/>
    <tag k="ele" v="38"/>
    <tag k="gnis:county_id" v="021"/>
    <tag k="gnis:created" v="07/01/1981"/>
    <tag k="gnis:feature_id" v="2059762"/>
    <tag k="gnis:state_id" v="34"/>
    <tag k="name" v="Saint Lawrence Rehabilitation Center"/>
  </node>
  <node id="357746256" lat="40.3042901" lon="-74.8467986">
    <tag k="amenity" v="school"/>
    <tag k="ele" v="54"/>
    <tag k="gnis:county_id" v="021"/>
    <tag k="gnis:created" v="07/01/1981"/>
    <tag k="gnis:edited" v="01/22/2008"/>
    <tag k="gnis:feature_id" v="2059798"/>
    <tag k="gnis:state_id" v="34"/>
    <tag k="name" v="Bear Tavern Elementary School"/>
  </node>
  <node id="357746264" lat="40.2780795" lon="-74.8360571">
    <tag k="amenity" v="school"/>
    <tag k="ele" v="63"/>
    <tag k="gnis:county_id" v="021"/>
    <tag k="gnis:created" v="07/01/1981"/>
    <tag k="gnis:edited" v="01/22/2008"/>
    <tag k="gnis:feature_id" v="2059801"/>
    <tag k="gnis:state_id" v="34"/>
    <tag k="name" v="Francis Lore Elementary School"/>
  </node>
  <node id="357746267" lat="40.2731473" lon="-74.7939211">
    <tag k="amenity" v="school"/>
    <tag k="ele" v="38"/>
    <tag k="gnis:county_id" v="021"/>
    <tag k="gnis:created" v="07/01/1981"/>
    <tag k="gnis:edited" v="01/22/2008"/>
    <tag k="gnis:feature_id" v="2059802"/>
    <tag k="gnis:state_id" v="34"/>
    <tag k="name" v="Gilmore J Fisher Middle School"/>
  </node>
  <node id="357746269" lat="40.2732249" lon="-74.7390286">
    <tag k="amenity" v="school"/>
    <tag k="ele" v="32"/>
    <tag k="gnis:county_id" v="021"/>
    <tag k="gnis:created" v="07/01/1981"/>
    <tag k="gnis:edited" v="01/22/2008"/>
    <tag k="gnis:feature_id" v="2059803"/>
    <tag k="gnis:state_id" v="34"/>
    <tag k="name" v="Lawrence Intermediate School"/>
  </node>
  <node id="357746272" lat="40.2985476" lon="-74.7331675">
    <tag k="amenity" v="school"/>
    <tag k="ele" v="42"/>
    <tag k="elementary_school_district" v="Lawrenceville Elementary School District"/>
    <tag k="gnis:county_id" v="021"/>
    <tag k="gnis:created" v="07/01/1981"/>
    <tag k="gnis:edited" v="01/22/2008"/>
    <tag k="gnis:feature_id" v="2059804"/>
    <tag k="gnis:state_id" v="34"/>
    <tag k="name" v="Lawrenceville Elementary School"/>
  </node>
  <node id="357746275" lat="40.2870508" lon="-74.7682481">
    <tag k="amenity" v="school"/>
    <tag k="ele" v="43"/>
    <tag k="gnis:county_id" v="021"/>
    <tag k="gnis:created" v="07/01/1981"/>
    <tag k="gnis:edited" v="01/22/2008"/>
    <tag k="gnis:feature_id" v="2059805"/>
    <tag k="gnis:state_id" v="34"/>
    <tag k="name" v="Mercer County Technical School Sypek Center"/>
  </node>
  <node id="357746298" lat="40.2729178" lon="-74.7671084">
    <tag k="amenity" v="school"/>
    <tag k="ele" v="36"/>
    <tag k="gnis:county_id" v="021"/>
    <tag k="gnis:created" v="07/01/1981"/>
    <tag k="gnis:edited" v="01/22/2008"/>
    <tag k="gnis:feature_id" v="2059815"/>
    <tag k="gnis:state_id" v="34"/>
    <tag k="name" v="William L Antheil Elementary School"/>
  </node>
  <node id="357746317" lat="40.3009407" lon="-74.8687758">
    <tag k="amenity" v="place_of_worship"/>
    <tag k="ele" v="31"/>
    <tag k="gnis:county_id" v="021"/>
    <tag k="gnis:created" v="07/01/1981"/>
    <tag k="gnis:feature_id" v="2059824"/>
    <tag k="gnis:state_id" v="34"/>
    <tag k="name" v="Saint George Church"/>
    <tag k="religion" v="christian"/>
  </node>
  <node id="357746320" lat="40.2617748" lon="-74.8162741">
    <tag k="amenity" v="place_of_worship"/>
    <tag k="denomination" v="presbyterian"/>
    <tag k="ele" v="45"/>
    <tag k="gnis:county_id" v="021"/>
    <tag k="gnis:created" v="07/01/1981"/>
    <tag k="gnis:feature_id" v="2059825"/>
    <tag k="gnis:state_id" v="34"/>
    <tag k="name" v="West Trenton Presbyterian Church"/>
    <tag k="religion" v="christian"/>
  </node>
  <node id="357746351" lat="40.2514301" lon="-74.7402678">
    <tag k="addr:city" v="Lawrence twp"/>
    <tag k="addr:housenumber" v="2060"/>
    <tag k="addr:street" v="Princeton Pike"/>
    <tag k="amenity" v="school"/>
    <tag k="ele" v="24"/>
    <tag k="elementary_school_district" v="Slackwood Elementary School District"/>
    <tag k="gnis:county_id" v="021"/>
    <tag k="gnis:created" v="07/01/1981"/>
    <tag k="gnis:edited" v="01/22/2008"/>
    <tag k="gnis:feature_id" v="2059924"/>
    <tag k="gnis:state_id" v="34"/>
    <tag k="name" v="Slackwood Elementary School"/>
  </node>
  <node id="357748904" lat="40.2420573" lon="-74.7453873">
    <tag k="amenity" v="school"/>
    <tag k="ele" v="32"/>
    <tag k="gnis:county_id" v="021"/>
    <tag k="gnis:created" v="01/22/2008"/>
    <tag k="gnis:feature_id" v="2372097"/>
    <tag k="gnis:state_id" v="34"/>
    <tag k="name" v="Christopher Columbus Elementary School"/>
  </node>
  <node id="357749047" lat="40.2259535" lon="-74.7626235">
    <tag k="amenity" v="school"/>
    <tag k="ele" v="21"/>
    <tag k="gnis:county_id" v="021"/>
    <tag k="gnis:created" v="01/22/2008"/>
    <tag k="gnis:feature_id" v="2372232"/>
    <tag k="gnis:state_id" v="34"/>
    <tag k="name" v="Luis Munoz Rivera Elementary School"/>
  </node>
  <node id="357749283" lat="40.2231797" lon="-74.7762468">
    <tag k="amenity" v="school"/>
    <tag k="ele" v="13"/>
    <tag k="gnis:county_id" v="021"/>
    <tag k="gnis:created" v="01/22/2008"/>
    <tag k="gnis:feature_id" v="2372448"/>
    <tag k="gnis:state_id" v="34"/>
    <tag k="name" v="Trenton Community Charter School"/>
  </node>
  <node id="357749433" lat="40.2202246" lon="-74.7253759">
    <tag k="amenity" v="school"/>
    <tag k="ele" v="17"/>
    <tag k="gnis:county_id" v="021"/>
    <tag k="gnis:created" v="01/22/2008"/>
    <tag k="gnis:feature_id" v="2372578"/>
    <tag k="gnis:state_id" v="34"/>
    <tag k="name" v="Kuser Elementary School"/>
  </node>
  <node id="357749508" lat="40.2217463" lon="-74.7364993">
    <tag k="amenity" v="school"/>
    <tag k="ele" v="16"/>
    <tag k="gnis:county_id" v="021"/>
    <tag k="gnis:created" v="01/22/2008"/>
    <tag k="gnis:feature_id" v="2372637"/>
    <tag k="gnis:state_id" v="34"/>
    <tag k="name" v="Paul Robeson Elementary School"/>
  </node>
  <node id="357749534" lat="40.2412043" lon="-74.7905099">
    <tag k="amenity" v="school"/>
    <tag k="ele" v="30"/>
    <tag k="gnis:county_id" v="021"/>
    <tag k="gnis:created" v="01/22/2008"/>
    <tag k="gnis:feature_id" v="2372654"/>
    <tag k="gnis:state_id" v="34"/>
    <tag k="name" v="Thomas Jefferson Elementary School"/>
  </node>
  <node id="357749972" lat="40.2191839" lon="-74.7313005">
    <tag k="amenity" v="school"/>
    <tag k="ele" v="17"/>
    <tag k="gnis:county_id" v="021"/>
    <tag k="gnis:created" v="01/22/2008"/>
    <tag k="gnis:feature_id" v="2372960"/>
    <tag k="gnis:state_id" v="34"/>
    <tag k="name" v="Newgrange School"/>
  </node>
  <node id="357749989" lat="40.3054362" lon="-74.7587044">
    <tag k="amenity" v="school"/>
    <tag k="ele" v="62"/>
    <tag k="gnis:county_id" v="021"/>
    <tag k="gnis:created" v="01/22/2008"/>
    <tag k="gnis:feature_id" v="2372974"/>
    <tag k="gnis:state_id" v="34"/>
    <tag k="name" v="Stony Brook Elementary School"/>
  </node>
  <node id="357749992" lat="40.2750355" lon="-74.7315492">
    <tag k="amenity" v="school"/>
    <tag k="ele" v="26"/>
    <tag k="gnis:county_id" v="021"/>
    <tag k="gnis:created" v="01/22/2008"/>
    <tag k="gnis:feature_id" v="2372976"/>
    <tag k="gnis:state_id" v="34"/>
    <tag k="name" v="Bridge Academy School"/>
  </node>
  <node id="357749993" lat="40.2376890" lon="-74.7499724">
    <tag k="amenity" v="school"/>
    <tag k="ele" v="29"/>
    <tag k="gnis:county_id" v="021"/>
    <tag k="gnis:created" v="01/22/2008"/>
    <tag k="gnis:feature_id" v="2372978"/>
    <tag k="gnis:state_id" v="34"/>
    <tag k="name" v="Mercer Arts Charter School"/>
  </node>
  <node id="357749995" lat="40.2238350" lon="-74.7771768">
    <tag k="amenity" v="school"/>
    <tag k="ele" v="12"/>
    <tag k="gnis:county_id" v="021"/>
    <tag k="gnis:created" v="01/22/2008"/>
    <tag k="gnis:feature_id" v="2372980"/>
    <tag k="gnis:state_id" v="34"/>
    <tag k="name" v="Foundation Academy Charter School"/>
  </node>
  <node id="357749998" lat="40.2347136" lon="-74.7569428">
    <tag k="amenity" v="school"/>
    <tag k="ele" v="26"/>
    <tag k="gnis:county_id" v="021"/>
    <tag k="gnis:created" v="01/22/2008"/>
    <tag k="gnis:feature_id" v="2372982"/>
    <tag k="gnis:state_id" v="34"/>
    <tag k="name" v="Afrikan Peoples Action School"/>
  </node>
  <node id="357750000" lat="40.2512199" lon="-74.7643103">
    <tag k="amenity" v="school"/>
    <tag k="ele" v="32"/>
    <tag k="gnis:county_id" v="021"/>
    <tag k="gnis:created" v="01/22/2008"/>
    <tag k="gnis:feature_id" v="2372984"/>
    <tag k="gnis:state_id" v="34"/>
    <tag k="name" v="Thomas J Rubino Academy High School"/>
  </node>
  <node id="357750010" lat="40.2226100" lon="-74.7544396">
    <tag k="amenity" v="school"/>
    <tag k="ele" v="14"/>
    <tag k="gnis:county_id" v="021"/>
    <tag k="gnis:created" v="01/22/2008"/>
    <tag k="gnis:feature_id" v="2372992"/>
    <tag k="gnis:state_id" v="34"/>
    <tag k="name" v="Trenton County High School Medical Arts Academy"/>
  </node>
  <node id="357750015" lat="40.2328497" lon="-74.7821650">
    <tag k="amenity" v="school"/>
    <tag k="ele" v="20"/>
    <tag k="gnis:county_id" v="021"/>
    <tag k="gnis:created" v="01/22/2008"/>
    <tag k="gnis:feature_id" v="2372996"/>
    <tag k="gnis:state_id" v="34"/>
    <tag k="name" v="Daylight Twilight High School"/>
  </node>
  <node id="357750017" lat="40.2330872" lon="-74.7443137">
    <tag k="amenity" v="school"/>
    <tag k="ele" v="16"/>
    <tag k="gnis:county_id" v="021"/>
    <tag k="gnis:created" v="01/22/2008"/>
    <tag k="gnis:feature_id" v="2372998"/>
    <tag k="gnis:state_id" v="34"/>
    <tag k="name" v="Career Education and Life Skills Center School"/>
  </node>
  <node id="357750457" lat="40.2208068" lon="-74.7664942">
    <tag k="amenity" v="school"/>
    <tag k="ele" v="13"/>
    <tag k="gnis:county_id" v="021"/>
    <tag k="gnis:created" v="01/22/2008"/>
    <tag k="gnis:feature_id" v="2373353"/>
    <tag k="gnis:state_id" v="34"/>
    <tag k="name" v="Emily Fisher Charter School of Advanced Studies"/>
  </node>
  <node id="357750471" lat="40.2350900" lon="-74.7438709">
    <tag k="amenity" v="school"/>
    <tag k="ele" v="17"/>
    <tag k="gnis:county_id" v="021"/>
    <tag k="gnis:created" v="01/22/2008"/>
    <tag k="gnis:feature_id" v="2373365"/>
    <tag k="gnis:state_id" v="34"/>
    <tag k="name" v="Woodrow Wilson Elementary School"/>
  </node>
  <node id="357750509" lat="40.2518717" lon="-74.7783075">
    <tag k="amenity" v="school"/>
    <tag k="ele" v="30"/>
    <tag k="gnis:county_id" v="021"/>
    <tag k="gnis:created" v="01/22/2008"/>
    <tag k="gnis:feature_id" v="2373397"/>
    <tag k="gnis:state_id" v="34"/>
    <tag k="name" v="Incarnation Elementary School"/>
  </node>
  <node id="357750618" lat="40.2292800" lon="-74.7861100">
    <tag k="amenity" v="school"/>
    <tag k="ele" v="9"/>
    <tag k="gnis:county_id" v="021"/>
    <tag k="gnis:created" v="01/22/2008"/>
    <tag k="gnis:feature_id" v="2373485"/>
    <tag k="gnis:state_id" v="34"/>
    <tag k="name" v="Trinity Cathedral Academy School"/>
  </node>
  <node id="357750911" lat="40.2589072" lon="-74.7965257">
    <tag k="amenity" v="school"/>
    <tag k="ele" v="40"/>
    <tag k="gnis:county_id" v="021"/>
    <tag k="gnis:created" v="01/22/2008"/>
    <tag k="gnis:feature_id" v="2373621"/>
    <tag k="gnis:state_id" v="34"/>
    <tag k="name" v="Ring Kindergarten School"/>
  </node>
  <node id="357750925" lat="40.2411117" lon="-74.7907762">
    <tag k="amenity" v="school"/>
    <tag k="ele" v="30"/>
    <tag k="gnis:county_id" v="021"/>
    <tag k="gnis:created" v="01/22/2008"/>
    <tag k="gnis:feature_id" v="2373626"/>
    <tag k="gnis:state_id" v="34"/>
    <tag k="name" v="Joyce Kilmer Elementary School"/>
  </node>
  <node id="357750968" lat="40.2384181" lon="-74.7739951">
    <tag k="amenity" v="school"/>
    <tag k="ele" v="29"/>
    <tag k="gnis:county_id" v="021"/>
    <tag k="gnis:created" v="01/22/2008"/>
    <tag k="gnis:feature_id" v="2373638"/>
    <tag k="gnis:state_id" v="34"/>
    <tag k="name" v="Mount Sinai Seventh Day Adventist School"/>
  </node>
  <node id="357750973" lat="40.2256166" lon="-74.7426241">
    <tag k="amenity" v="school"/>
    <tag k="ele" v="15"/>
    <tag k="gnis:county_id" v="021"/>
    <tag k="gnis:created" v="01/22/2008"/>
    <tag k="gnis:feature_id" v="2373640"/>
    <tag k="gnis:state_id" v="34"/>
    <tag k="name" v="Patton J Hill Elementary School"/>
  </node>
  <node id="357751012" lat="40.2668701" lon="-74.7840704">
    <tag k="amenity" v="school"/>
    <tag k="ele" v="36"/>
    <tag k="gnis:county_id" v="021"/>
    <tag k="gnis:created" v="01/22/2008"/>
    <tag k="gnis:feature_id" v="2373655"/>
    <tag k="gnis:state_id" v="34"/>
    <tag k="name" v="Family Guidance Center Childrens Day School"/>
  </node>
  <node id="357751039" lat="40.2320362" lon="-74.7599259">
    <tag k="amenity" v="school"/>
    <tag k="ele" v="27"/>
    <tag k="gnis:county_id" v="021"/>
    <tag k="gnis:created" v="01/22/2008"/>
    <tag k="gnis:feature_id" v="2373668"/>
    <tag k="gnis:state_id" v="34"/>
    <tag k="name" v="Martin Luther King Junior Middle School"/>
  </node>
  <node id="357751077" lat="40.2408951" lon="-74.8059503">
    <tag k="amenity" v="school"/>
    <tag k="ele" v="19"/>
    <tag k="gnis:county_id" v="021"/>
    <tag k="gnis:created" v="01/22/2008"/>
    <tag k="gnis:feature_id" v="2373683"/>
    <tag k="gnis:state_id" v="34"/>
    <tag k="name" v="The Village Charter School"/>
  </node>
  <node id="357751543" lat="40.2899600" lon="-74.7765325">
    <tag k="amenity" v="school"/>
    <tag k="ele" v="51"/>
    <tag k="gnis:county_id" v="021"/>
    <tag k="gnis:created" v="01/22/2008"/>
    <tag k="gnis:feature_id" v="2373857"/>
    <tag k="gnis:state_id" v="34"/>
    <tag k="name" v="Camelot School"/>
  </node>
  <node id="357751561" lat="40.2320097" lon="-74.7925140">
    <tag k="amenity" v="school"/>
    <tag k="ele" v="8"/>
    <tag k="gnis:county_id" v="021"/>
    <tag k="gnis:created" v="01/22/2008"/>
    <tag k="gnis:feature_id" v="2373864"/>
    <tag k="gnis:state_id" v="34"/>
    <tag k="name" v="Trenton Central High School West"/>
  </node>
  <node id="357751630" lat="40.2217500" lon="-74.7364800">
    <tag k="amenity" v="school"/>
    <tag k="ele" v="16"/>
    <tag k="gnis:county_id" v="021"/>
    <tag k="gnis:created" v="01/22/2008"/>
    <tag k="gnis:feature_id" v="2373888"/>
    <tag k="gnis:state_id" v="34"/>
    <tag k="name" v="Hedgepeth Williams School"/>
  </node>
  <node id="367693380" lat="40.2827778" lon="-74.7330556">
    <tag k="addr:state" v="NJ"/>
    <tag k="amenity" v="public_building"/>
    <tag k="ele" v="35"/>
    <tag k="gnis:county_name" v="Mercer"/>
    <tag k="gnis:feature_id" v="2353456"/>
    <tag k="gnis:import_uuid" v="57871b70-0100-4405-bb30-88b2e001a944"/>
    <tag k="gnis:reviewed" v="no"/>
    <tag k="name" v="Lawrence Township Municipal Building"/>
    <tag k="source" v="USGS Geonames"/>
  </node>
  <node id="367693392" lat="40.3094444" lon="-74.8177778">
    <tag k="addr:state" v="NJ"/>
    <tag k="amenity" v="public_building"/>
    <tag k="ele" v="45"/>
    <tag k="gnis:county_name" v="Mercer"/>
    <tag k="gnis:feature_id" v="2353466"/>
    <tag k="gnis:import_uuid" v="57871b70-0100-4405-bb30-88b2e001a944"/>
    <tag k="gnis:reviewed" v="no"/>
    <tag k="name" v="Hopewell Township Municipal Building"/>
    <tag k="source" v="USGS Geonames"/>
  </node>
  <node id="616556956" lat="40.2202874" lon="-74.8712048">
    <tag k="amenity" v="bank"/>
    <tag k="atm" v="yes"/>
    <tag k="name" v="Wachovia"/>
  </node>
  <node id="616556965" lat="40.2218931" lon="-74.8748205">
    <tag k="amenity" v="bank"/>
    <tag k="atm" v="yes"/>
    <tag k="name" v="Wachovia"/>
  </node>
  <node id="616556976" lat="40.2200949" lon="-74.8696438">
    <tag k="amenity" v="fire_station"/>
    <tag k="name" v="Lower Makefield"/>
  </node>
  <node id="616556996" lat="40.2218023" lon="-74.8732510">
    <tag k="amenity" v="pharmacy"/>
    <tag k="dispensing" v="yes"/>
    <tag k="name" v="Eckerd"/>
  </node>
  <node id="616557003" lat="40.2210581" lon="-74.8718738">
    <tag k="amenity" v="pharmacy"/>
    <tag k="dispensing" v="yes"/>
    <tag k="name" v="Rite-Aid"/>
  </node>
  <node id="616557005" lat="40.2214636" lon="-74.8718010">
    <tag k="amenity" v="restaurant"/>
    <tag k="cuisine" v="italian"/>
    <tag k="name" v="Villa Rosa"/>
  </node>
  <node id="616557007" lat="40.2212582" lon="-74.8718110">
    <tag k="amenity" v="fast_food"/>
    <tag k="name" v="TCBY"/>
  </node>
  <node id="692253112" lat="40.2209742" lon="-74.8730164">
    <tag k="amenity" v="restaurant"/>
    <tag k="name" v="Little Dragon"/>
  </node>
  <node id="885796212" lat="40.2727744" lon="-74.8507002">
    <tag k="amenity" v="restaurant"/>
    <tag k="name" v="Erini"/>
  </node>
  <node id="1103315565" lat="40.2822893" lon="-74.8122068">
    <tag k="amenity" v="parking"/>
    <tag k="name" v="Ronson Aviation"/>
  </node>
  <node id="1122415564" lat="40.2668118" lon="-74.7600076">
    <tag k="amenity" v="studio"/>
    <tag k="name" v="New Jersey 101.5"/>
    <tag k="type" v="audio"/>
  </node>
  <node id="1202380845" lat="40.2431471" lon="-74.8389102">
    <tag k="amenity" v="atm"/>
  </node>
  <node id="1202380846" lat="40.2425001" lon="-74.8391382">
    <tag k="amenity" v="cafe"/>
    <tag k="name" v="Starbucks"/>
  </node>
  <node id="1202380849" lat="40.2438674" lon="-74.8381444">
    <tag k="amenity" v="pharmacy"/>
    <tag k="name" v="CVS"/>
  </node>
  <node id="1202380867" lat="40.2424346" lon="-74.8392401">
    <tag k="amenity" v="parking"/>
  </node>
  <node id="1211280107" lat="40.2700916" lon="-74.7770671">
    <tag k="amenity" v="library"/>
    <tag k="name" v="TCNJ library"/>
  </node>
  <node id="1274089451" lat="40.2613361" lon="-74.8678407">
    <tag k="amenity" v="parking"/>
  </node>
  <node id="1274089452" lat="40.2603416" lon="-74.8671648">
    <tag k="amenity" v="parking"/>
  </node>
  <node id="1446225894" lat="40.3094457" lon="-74.8144071">
    <tag k="amenity" v="police"/>
    <tag k="name" v="Hopewell Township Police"/>
  </node>
  <node id="1769568303" lat="40.3093098" lon="-74.7863612">
    <tag k="amenity" v="pub"/>
    <tag k="name" v="Wildflowers"/>
    <tag k="wifi" v="no"/>
  </node>
  <node id="2012636059" lat="40.2591148" lon="-74.7962744">
    <tag k="addr:housename" v="New York Bagel"/>
    <tag k="addr:street" v="Parkway Ave"/>
    <tag k="amenity" v="cafe"/>
    <tag k="cuisine" v="sandwich"/>
    <tag k="name" v="New York Bagel"/>
  </node>
  <node id="2012637773" lat="40.2595446" lon="-74.7968108">
    <tag k="addr:housename" v="Ewing Diner"/>
    <tag k="addr:street" v="Parkway Ave"/>
    <tag k="amenity" v="cafe"/>
    <tag k="cuisine" v="coffee_shop"/>
    <tag k="name" v="Ewing Diner"/>
  </node>
  <node id="2012640460" lat="40.2516474" lon="-74.7885282">
    <tag k="addr:housename" v="Dunkin Donut"/>
    <tag k="addr:street" v="N Olden Ave"/>
    <tag k="amenity" v="cafe"/>
    <tag k="cuisine" v="coffee_shop"/>
    <tag k="name" v="Dunkin' Donuts"/>
  </node>
  <node id="2012643824" lat="40.2663377" lon="-74.8072766">
    <tag k="addr:street" v="Parkway Ave"/>
    <tag k="amenity" v="cafe"/>
    <tag k="cuisine" v="coffee_shop"/>
    <tag k="name" v="RJ's bagel Shop"/>
  </node>
  <node id="2012644367" lat="40.2653452" lon="-74.8026205">
    <tag k="addr:street" v="Scotch Road"/>
    <tag k="amenity" v="cafe"/>
    <tag k="cuisine" v="coffee_shop"/>
    <tag k="name" v="Italian People's Bakery "/>
  </node>
  <node id="2012644501" lat="40.2750049" lon="-74.8034144">
    <tag k="addr:street" v="Scotch Road"/>
    <tag k="amenity" v="cafe"/>
    <tag k="name" v="Bagel Shop"/>
  </node>
  <node id="2485866870" lat="40.3062402" lon="-74.7580685">
    <tag k="amenity" v="toilets"/>
  </node>
  <node id="2498438990" lat="40.2649042" lon="-74.8028404">
    <tag k="addr:city" v="Ewing"/>
    <tag k="addr:housenumber" v="7"/>
    <tag k="addr:postcode" v="08628"/>
    <tag k="addr:street" v="Scotch Road"/>
    <tag k="amenity" v="restaurant"/>
    <tag k="cuisine" v="burger"/>
    <tag k="name" v="Five Guys Burgers and Fries"/>
  </node>
  <node id="2498440566" lat="40.3011497" lon="-74.7827493">
    <tag k="addr:city" v="Pennington"/>
    <tag k="addr:housenumber" v="800"/>
    <tag k="addr:postcode" v="08534"/>
    <tag k="addr:street" v="Denow Road"/>
    <tag k="amenity" v="cafe"/>
    <tag k="cuisine" v="coffee_shop"/>
    <tag k="internet_access" v="yes"/>
    <tag k="name" v="Starbucks"/>
  </node>
  <node id="2618173051" lat="40.2676720" lon="-74.8131378">
    <tag k="amenity" v="fuel"/>
    <tag k="name" v="Valero"/>
  </node>
  <node id="2622896158" lat="40.2690248" lon="-74.7741029">
    <tag k="amenity" v="place_of_worship"/>
    <tag k="name" v="Spiritual Center"/>
  </node>
  <node id="3080926050" lat="40.2647663" lon="-74.8029243">
    <tag k="amenity" v="pharmacy"/>
    <tag k="name" v="CVS"/>
  </node>
  <node id="3696805216" lat="40.2503067" lon="-74.7562179">
    <tag k="amenity" v="school"/>
    <tag k="contact:phone" v="609.977.7523"/>
    <tag k="name" v="Cordas Music"/>
  </node>
  <node id="3810893803" lat="40.2233946" lon="-74.7546874">
    <tag k="amenity" v="hospital"/>
  </node>
  <node id="4079770602" lat="40.2704748" lon="-74.7794243">
    <tag k="amenity" v="theatre"/>
    <tag k="name" v="Don Evan's Black Box Theater"/>
  </node>
  <node id="4079772089" lat="40.2685091" lon="-74.7799956">
    <tag k="amenity" v="arts_centre"/>
  </node>
  <node id="4079772122" lat="40.2711348" lon="-74.7797274">
    <tag k="amenity" v="fountain"/>
  </node>
  <node id="4115354875" lat="40.2208182" lon="-74.7588090">
    <tag k="addr:city" v="Trenton"/>
    <tag k="addr:housenumber" v="320-322"/>
    <tag k="addr:street" v="East State Street"/>
    <tag k="amenity" v="restaurant"/>
    <tag k="contact:facebook" v="http://www.facebook.com/NJWeedmansJoint"/>
    <tag k="contact:phone" v="(609) 337-9973"/>
    <tag k="cuisine" v="american"/>
    <tag k="name" v="NJ Weedman's Joint"/>
    <tag k="website" v="http://njweedmansjoint.com/"/>
  </node>
  <node id="4115376506" lat="40.2374635" lon="-74.7485778">
    <tag k="amenity" v="restaurant"/>
    <tag k="contact:phone" v="(609) 656-1600"/>
    <tag k="cuisine" v="polish"/>
    <tag k="name" v="Rozmaryn Restaurant &amp; Bistro"/>
    <tag k="website" v="http://www.rozmarynrestaurant.com/"/>
  </node>
  <node id="4116199832" lat="40.2234384" lon="-74.7698241">
    <tag k="addr:city" v="Trenton"/>
    <tag k="addr:housenumber" v="24"/>
    <tag k="addr:street" v="Passaic Street"/>
    <tag k="amenity" v="nightclub"/>
    <tag k="contact:phone" v="(609) 695-9612"/>
    <tag k="name" v="Candlelight Lounge"/>
    <tag k="nightclub" v="jazz club"/>
    <tag k="website" v="http://jazztrenton.com/"/>
  </node>
  <node id="4116215771" lat="40.2208125" lon="-74.7291587">
    <tag k="addr:city" v="Trenton"/>
    <tag k="addr:housenumber" v="1324"/>
    <tag k="addr:street" v="Hamilton Avenue"/>
    <tag k="amenity" v="bar"/>
    <tag k="bar" v="irish"/>
    <tag k="contact:phone" v="609-392-2554"/>
    <tag k="name" v="Tir Na Nog"/>
    <tag k="website" v="http://trentontirnanog.com/"/>
  </node>
  <node id="4142945325" lat="40.2294127" lon="-74.7252971">
    <tag k="addr:city" v="Hamilton"/>
    <tag k="addr:housenumber" v="2003"/>
    <tag k="addr:street" v="Greenwood Avenue"/>
    <tag k="amenity" v="restaurant"/>
    <tag k="contact:phone" v="+1 609 584 6977"/>
    <tag k="name" v="Buen Gusto Family Restaurant"/>
    <tag k="operator" v="dominican"/>
  </node>
  <node id="4150886083" lat="40.2209890" lon="-74.7693412">
    <tag k="addr:city" v="Trenton"/>
    <tag k="addr:housenumber" v="128"/>
    <tag k="addr:street" v="W State St"/>
    <tag k="amenity" v="restaurant"/>
    <tag k="contact:phone" v="+1-609-392-2233"/>
    <tag k="name" v="Cafe 128"/>
  </node>
  <node id="4150933337" lat="40.2209890" lon="-74.7693412">
    <tag k="addr:city" v="Trenton"/>
    <tag k="addr:housenumber" v="128"/>
    <tag k="addr:street" v="West State Street"/>
    <tag k="amenity" v="restaurant"/>
    <tag k="contact:phone" v="+1-609-392-2233"/>
    <tag k="name" v="Cafe 128"/>
  </node>
  <node id="4151110281" lat="40.2195697" lon="-74.7658397">
    <tag k="addr:city" v="Trenton"/>
    <tag k="addr:housenumber" v="26"/>
    <tag k="addr:street" v="South Warren Street"/>
    <tag k="amenity" v="restaurant"/>
    <tag k="contact:phone" v="+1-609-278-8994"/>
    <tag k="name" v="Sunrise Luncheonette"/>
  </node>
  <node id="4151192189" lat="40.2199308" lon="-74.7658011">
    <tag k="addr:city" v="Trenton"/>
    <tag k="addr:housenumber" v="14"/>
    <tag k="addr:street" v="S Warren St"/>
    <tag k="amenity" v="restaurant"/>
    <tag k="contact:phone" v="+1-609-394-3895"/>
    <tag k="name" v="Checkers"/>
  </node>
  <node id="4151192190" lat="40.2200402" lon="-74.7657774">
    <tag k="addr:city" v="Trenton"/>
    <tag k="addr:housenumber" v="8"/>
    <tag k="addr:street" v="S Warren St"/>
    <tag k="amenity" v="restaurant"/>
    <tag k="contact:phone" v="+1-609-393-5707"/>
    <tag k="name" v="Columbus International Pizza I"/>
  </node>
  <node id="4151192191" lat="40.2201620" lon="-74.7657335">
    <tag k="addr:city" v="Trenton"/>
    <tag k="addr:housenumber" v="7"/>
    <tag k="addr:street" v="W State St"/>
    <tag k="amenity" v="restaurant"/>
    <tag k="contact:phone" v="+1-609-393-5555"/>
    <tag k="name" v="Gyro Express"/>
  </node>
  <node id="4154572724" lat="40.2207667" lon="-74.7592136">
    <tag k="addr:city" v="Trenton"/>
    <tag k="addr:housenumber" v="312"/>
    <tag k="addr:street" v="E State St"/>
    <tag k="amenity" v="restaurant"/>
    <tag k="contact:phone" v="+1-609-989-9800"/>
    <tag k="name" v="Soulful Seafood's Soul Shack"/>
  </node>
  <node id="4154573659" lat="40.2206687" lon="-74.7600576">
    <tag k="addr:city" v="Trenton"/>
    <tag k="addr:housenumber" v="240"/>
    <tag k="addr:street" v="E State St"/>
    <tag k="amenity" v="restaurant"/>
    <tag k="contact:phone" v="+1-609-278-1919"/>
    <tag k="name" v="China Star"/>
  </node>
  <node id="4154573660" lat="40.2207040" lon="-74.7598929">
    <tag k="addr:city" v="Trenton"/>
    <tag k="addr:housenumber" v="244"/>
    <tag k="addr:street" v="E State St"/>
    <tag k="amenity" v="restaurant"/>
    <tag k="contact:phone" v="+1-609-695-5155"/>
    <tag k="name" v="Latino Americano Pizza"/>
  </node>
  <node id="4154573661" lat="40.2206848" lon="-74.7599685">
    <tag k="addr:city" v="Trenton"/>
    <tag k="addr:housenumber" v="242"/>
    <tag k="addr:street" v="E State St"/>
    <tag k="amenity" v="restaurant"/>
    <tag k="contact:phone" v="+1-609-396-0300"/>
    <tag k="name" v="Soul Food Chess House"/>
  </node>
  <node id="4154578313" lat="40.2203000" lon="-74.7639100">
    <tag k="addr:city" v="Trenton"/>
    <tag k="addr:housenumber" v="2"/>
    <tag k="addr:street" v="N Broad St"/>
    <tag k="amenity" v="restaurant"/>
    <tag k="contact:phone" v="+1-609-393-4394"/>
    <tag k="name" v="Crown Fried Chicken"/>
  </node>
  <node id="4154578314" lat="40.2204607" lon="-74.7639774">
    <tag k="addr:city" v="Trenton"/>
    <tag k="addr:housenumber" v="8"/>
    <tag k="addr:street" v="N Broad St"/>
    <tag k="amenity" v="restaurant"/>
    <tag k="contact:phone" v="+1-609-695-2830"/>
    <tag k="name" v="Po-Po No 1 Chinese Restaurant"/>
  </node>
  <node id="4154894322" lat="40.2206001" lon="-74.7650299">
    <tag k="amenity" v="restaurant"/>
    <tag k="name" v="Two Brother's Pizza"/>
  </node>
  <node id="4163124316" lat="40.2231981" lon="-74.7598408">
    <tag k="amenity" v="swimming_pool"/>
    <tag k="covered" v="no"/>
    <tag k="name" v="Roberto Clemente Pool"/>
    <tag k="sport" v="swimming"/>
  </node>
  <node id="4163124897" lat="40.2294113" lon="-74.7601170">
    <tag k="amenity" v="swimming_pool"/>
    <tag k="covered" v="no"/>
    <tag k="name" v="Martin Luther King Pool"/>
    <tag k="sport" v="swimming"/>
  </node>
  <node id="4163125389" lat="40.2373849" lon="-74.7577728">
    <tag k="amenity" v="swimming_pool"/>
    <tag k="covered" v="no"/>
    <tag k="name" v="Father Rocco Pool at Capital City Sports Complex"/>
    <tag k="sport" v="swimming"/>
  </node>
  <node id="4163127589" lat="40.2334617" lon="-74.7707761">
    <tag k="amenity" v="swimming_pool"/>
    <tag k="covered" v="no"/>
    <tag k="designation" v="Outdoor, but covered"/>
    <tag k="name" v="Trenton Area Family YMCA Pool"/>
    <tag k="sport" v="swimming"/>
  </node>
  <node id="4272099192" lat="40.2897136" lon="-74.7341924">
    <tag k="amenity" v="fuel"/>
    <tag k="name" v="Lukoil"/>
  </node>
  <node id="4274531955" lat="40.2202656" lon="-74.7670324">
    <tag k="amenity" v="bank"/>
    <tag k="name" v="Santander"/>
  </node>
  <node id="4416998480" lat="40.2201638" lon="-74.7654173">
    <tag k="addr:street" v="East State Street"/>
    <tag k="amenity" v="bureau_de_change"/>
    <tag k="contact:phone" v="609 394 2123"/>
    <tag k="name" v="N Y Gold Express Inc"/>
    <tag k="shop" v="pawnbroker"/>
  </node>
  <node id="4417000797" lat="40.2201792" lon="-74.7658062">
    <tag k="amenity" v="vending_machine"/>
    <tag k="operator" v="The Times of Trenton"/>
    <tag k="vending" v="newspapers"/>
    <tag k="website" v="http://www.nj.com/times/"/>
  </node>
  <node id="4417000798" lat="40.2201925" lon="-74.7658009">
    <tag k="amenity" v="vending_machine"/>
    <tag k="operator" v="Reporte Hispano"/>
    <tag k="vending" v="newspapers"/>
    <tag k="website" v="https://reportehispano.com/"/>
  </node>
  <node id="4423519157" lat="40.2368239" lon="-74.7840871">
    <tag k="amenity" v="place_of_worship"/>
    <tag k="denomination" v="united_methodist"/>
    <tag k="name" v="Cadwalader-Asbury Church"/>
    <tag k="religion" v="christian"/>
  </node>
  <node id="4503527549" lat="40.2525115" lon="-74.8672229">
    <tag k="amenity" v="toilets"/>
    <tag k="source" v="Bing"/>
  </node>
  <node id="4552801944" lat="40.2671443" lon="-74.8061633">
    <tag k="addr:city" v="Ewing"/>
    <tag k="addr:housenumber" v="1400"/>
    <tag k="addr:postcode" v="08628"/>
    <tag k="addr:state" v="NJ"/>
    <tag k="addr:street" v="Parkway Avenue"/>
    <tag k="amenity" v="restaurant"/>
    <tag k="name" v="The Firkin Tavern"/>
  </node>

</osm>
